ENTRYSAT                
1 44429U 98067QP  19355.70823701  .00009228  00000-0  14474-3 0  9998
2 44429  51.6391 148.4277 0002632  34.6592 325.4569 15.54458856 26682
VCC C                   
1 44430U 98067QQ  19355.70047093  .00010635  00000-0  16388-3 0  9992
2 44430  51.6394 148.3791 0002713  44.1122 316.0085 15.54762029 25512
VCC B                   
1 44431U 98067QR  19355.72896733  .00007291  00000-0  11747-3 0  9996
2 44431  51.6398 148.5682 0003130  41.4737 318.6491 15.54082041 26625
DUCHIFAT-3              
1 44854U 19089C   19356.24312951  .00000294  00000-0  30295-4 0  9991
2 44854  36.9680  71.4248 0008222  50.0871 310.0606 14.98934122  1549
